[
    {
        "Altitude(m)": 558893.8807936335,
        "Argument of Periapsis(deg)": 0.006622991110713501,
        "Eccentricity": 0.0,
        "Inclination(deg)": 53.0,
        "Latitude(deg)": 48.73695268991678,
        "Longitude(deg)": 140.55932831345734,
        "Mean Anomaly(deg)": 110.09159286757756,
        "RAAN(deg)": 119.99014336852802,
        "Satellite Name": "Starlink Shell 1 534",
        "Satellite Number": 534,
        "Semi-Major Axis(m)": 6931778.249405717,
        "Time(s)": 190
    },
    {
        "Altitude(m)": 558833.5597755482,
        "Argument of Periapsis(deg)": 0.0069715695902247375,
        "Eccentricity": 0.0,
        "Inclination(deg)": 53.0,
        "Latitude(deg)": 48.47315721769371,
        "Longitude(deg)": 141.37599165865825,
        "Mean Anomaly(deg)": 110.71842407113431,
        "RAAN(deg)": 119.98962459845052,
        "Satellite Name": "Starlink Shell 1 534",
        "Satellite Number": 534,
        "Semi-Major Axis(m)": 6931778.249405717,
        "Time(s)": 200
    },
    {
        "Altitude(m)": 558771.8174050865,
        "Argument of Periapsis(deg)": 0.007320148069735974,
        "Eccentricity": 0.0,
        "Inclination(deg)": 53.0,
        "Latitude(deg)": 48.20302262465391,
        "Longitude(deg)": 142.18370845856174,
        "Mean Anomaly(deg)": 111.34525527469103,
        "RAAN(deg)": 119.98910582837307,
        "Satellite Name": "Starlink Shell 1 534",
        "Satellite Number": 534,
        "Semi-Major Axis(m)": 6931778.249405717,
        "Time(s)": 210
    },
    {
        "Altitude(m)": 558708.6915868124,
        "Argument of Periapsis(deg)": 0.007668726549247212,
        "Eccentricity": 0.0,
        "Inclination(deg)": 53.0,
        "Latitude(deg)": 47.92667337293525,
        "Longitude(deg)": 142.98245027916684,
        "Mean Anomaly(deg)": 111.9720864782477,
        "RAAN(deg)": 119.98858705829561,
        "Satellite Name": "Starlink Shell 1 534",
        "Satellite Number": 534,
        "Semi-Major Axis(m)": 6931778.249405717,
        "Time(s)": 220
    },
    {
        "Altitude(m)": 558644.2211298284,
        "Argument of Periapsis(deg)": 0.00801730502875845,
        "Eccentricity": 0.0,
        "Inclination(deg)": 53.0,
        "Latitude(deg)": 47.6442335490308,
        "Longitude(deg)": 143.77220048055855,
        "Mean Anomaly(deg)": 112.59891768180445,
        "RAAN(deg)": 119.98806828821812,
        "Satellite Name": "Starlink Shell 1 534",
        "Satellite Number": 534,
        "Semi-Major Axis(m)": 6931778.249405717,
        "Time(s)": 230
    },
    {
        "Altitude(m)": 558578.4457285587,
        "Argument of Periapsis(deg)": 0.008365883508269684,
        "Eccentricity": 0.0,
        "Inclination(deg)": 53.0,
        "Latitude(deg)": 47.35582669955256,
        "Longitude(deg)": 144.55295416963557,
        "Mean Anomaly(deg)": 113.22574888536111,
        "RAAN(deg)": 119.98754951814064,
        "Satellite Name": "Starlink Shell 1 534",
        "Satellite Number": 534,
        "Semi-Major Axis(m)": 6931778.249405717,
        "Time(s)": 240
    },
    {
        "Altitude(m)": 558511.4059431382,
        "Argument of Periapsis(deg)": 0.008714461987780921,
        "Eccentricity": 0.0,
        "Inclination(deg)": 53.0,
        "Latitude(deg)": 47.06157567819747,
        "Longitude(deg)": 145.32471663443013,
        "Mean Anomaly(deg)": 113.85258008891785,
        "RAAN(deg)": 119.98703074806318,
        "Satellite Name": "Starlink Shell 1 534",
        "Satellite Number": 534,
        "Semi-Major Axis(m)": 6931778.249405717,
        "Time(s)": 250
    },
    {
        "Altitude(m)": 558443.1431793174,
        "Argument of Periapsis(deg)": 0.009063040467292158,
        "Eccentricity": 0.0,
        "Inclination(deg)": 53.0,
        "Latitude(deg)": 46.761602503786634,
        "Longitude(deg)": 146.08750328923537,
        "Mean Anomaly(deg)": 114.4794112924746,
        "RAAN(deg)": 119.98651197798569,
        "Satellite Name": "Starlink Shell 1 534",
        "Satellite Number": 534,
        "Semi-Major Axis(m)": 6931778.249405717,
        "Time(s)": 260
    },
    {
        "Altitude(m)": 558373.6996679343,
        "Argument of Periapsis(deg)": 0.009411618946803396,
        "Eccentricity": 0.0,
        "Inclination(deg)": 53.0,
        "Latitude(deg)": 46.456028229194665,
        "Longitude(deg)": 146.84133962083405,
        "Mean Anomaly(deg)": 115.10624249603126,
        "RAAN(deg)": 119.98599320790824,
        "Satellite Name": "Starlink Shell 1 534",
        "Satellite Number": 534,
        "Semi-Major Axis(m)": 6931778.249405717,
        "Time(s)": 270
    },
    {
        "Altitude(m)": 558303.1184439558,
        "Argument of Periapsis(deg)": 0.009760197426314633,
        "Eccentricity": 0.0,
        "Inclination(deg)": 53.0,
        "Latitude(deg)": 46.144972820936545,
        "Longitude(deg)": 147.58625962582343,
        "Mean Anomaly(deg)": 115.73307369958803,
        "RAAN(deg)": 119.98547443783076,
        "Satellite Name": "Starlink Shell 1 534",
        "Satellite Number": 534,
        "Semi-Major Axis(m)": 6931778.249405717,
        "Time(s)": 280
    },
    {
        "Altitude(m)": 558231.4433251243,
        "Argument of Periapsis(deg)": 0.01010877590582587,
        "Eccentricity": 0.0,
        "Inclination(deg)": 53.0,
        "Latitude(deg)": 45.828555049126514,
        "Longitude(deg)": 148.32230576736268,
        "Mean Anomaly(deg)": 116.35990490314468,
        "RAAN(deg)": 119.98495566775328,
        "Satellite Name": "Starlink Shell 1 534",
        "Satellite Number": 534,
        "Semi-Major Axis(m)": 6931778.249405717,
        "Time(s)": 290
    },
    {
        "Altitude(m)": 558158.7188901621,
        "Argument of Periapsis(deg)": 0.010457354385337106,
        "Eccentricity": 0.0,
        "Inclination(deg)": 53.0,
        "Latitude(deg)": 45.50689238749298,
        "Longitude(deg)": 149.0495289407593,
        "Mean Anomaly(deg)": 116.98673610670144,
        "RAAN(deg)": 119.9844368976758,
        "Satellite Name": "Starlink Shell 1 534",
        "Satellite Number": 534,
        "Semi-Major Axis(m)": 6931778.249405717,
        "Time(s)": 300
    },
    {
        "Altitude(m)": 558084.9904565889,
        "Argument of Periapsis(deg)": 0.010805932864848343,
        "Eccentricity": 0.0,
        "Inclination(deg)": 53.0,
        "Latitude(deg)": 45.18010092310217,
        "Longitude(deg)": 149.76798693702625,
        "Mean Anomaly(deg)": 117.61356731025822,
        "RAAN(deg)": 119.98391812759834,
        "Satellite Name": "Starlink Shell 1 534",
        "Satellite Number": 534,
        "Semi-Major Axis(m)": 6931778.249405717,
        "Time(s)": 310
    },
    {
        "Altitude(m)": 558010.3040581587,
        "Argument of Periapsis(deg)": 0.01115451134435958,
        "Eccentricity": 0.0,
        "Inclination(deg)": 53.0,
        "Latitude(deg)": 44.84829527541044,
        "Longitude(deg)": 150.47774443190488,
        "Mean Anomaly(deg)": 118.24039851381487,
        "RAAN(deg)": 119.98339935752085,
        "Satellite Name": "Starlink Shell 1 534",
        "Satellite Number": 534,
        "Semi-Major Axis(m)": 6931778.249405717,
        "Time(s)": 320
    },
    {
        "Altitude(m)": 557934.7064219016,
        "Argument of Periapsis(deg)": 0.011503089823870818,
        "Eccentricity": 0.0,
        "Inclination(deg)": 53.0,
        "Latitude(deg)": 44.51158852425227,
        "Longitude(deg)": 151.17887298896773,
        "Mean Anomaly(deg)": 118.86722971737159,
        "RAAN(deg)": 119.9828805874434,
        "Satellite Name": "Starlink Shell 1 534",
        "Satellite Number": 534,
        "Semi-Major Axis(m)": 6931778.249405717,
        "Time(s)": 330
    },
    {
        "Altitude(m)": 557858.244944804,
        "Argument of Periapsis(deg)": 0.011851668303382053,
        "Eccentricity": 0.0,
        "Inclination(deg)": 53.0,
        "Latitude(deg)": 44.17009214635674,
        "Longitude(deg)": 151.87144956517247,
        "Mean Anomaly(deg)": 119.49406092092826,
        "RAAN(deg)": 119.98236181736593,
        "Satellite Name": "Starlink Shell 1 534",
        "Satellite Number": 534,
        "Semi-Major Axis(m)": 6931778.249405717,
        "Time(s)": 340
    },
    {
        "Altitude(m)": 557780.9676701048,
        "Argument of Periapsis(deg)": 0.012200246782893292,
        "Eccentricity": 0.0,
        "Inclination(deg)": 53.0,
        "Latitude(deg)": 43.82391595996734,
        "Longitude(deg)": 152.55555654564355,
        "Mean Anomaly(deg)": 120.12089212448504,
        "RAAN(deg)": 119.98184304728845,
        "Satellite Name": "Starlink Shell 1 534",
        "Satellite Number": 534,
        "Semi-Major Axis(m)": 6931778.249405717,
        "Time(s)": 350
    },
    {
        "Altitude(m)": 557702.9232633052,
        "Argument of Periapsis(deg)": 0.012548825262404526,
        "Eccentricity": 0.0,
        "Inclination(deg)": 53.0,
        "Latitude(deg)": 43.473168077141686,
        "Longitude(deg)": 153.23128179562264,
        "Mean Anomaly(deg)": 120.74772332804177,
        "RAAN(deg)": 119.98132427721097,
        "Satellite Name": "Starlink Shell 1 534",
        "Satellite Number": 534,
        "Semi-Major Axis(m)": 6931778.249405717,
        "Time(s)": 360
    },
    {
        "Altitude(m)": 557624.1609877581,
        "Argument of Periapsis(deg)": 0.012897403741915765,
        "Eccentricity": 0.0,
        "Inclination(deg)": 53.0,
        "Latitude(deg)": 43.11795486330506,
        "Longitude(deg)": 153.89871721733556,
        "Mean Anomaly(deg)": 121.37455453159845,
        "RAAN(deg)": 119.98080550713351,
        "Satellite Name": "Starlink Shell 1 534",
        "Satellite Number": 534,
        "Semi-Major Axis(m)": 6931778.249405717,
        "Time(s)": 370
    }
]